OBJECT_NAME,OBJECT_ID,EPOCH,MEAN_MOTION,ECCENTRICITY,INCLINATION,RA_OF_ASC_NODE,ARG_OF_PERICENTER,MEAN_ANOMALY,EPHEMERIS_TYPE,CLASSIFICATION_TYPE,NORAD_CAT_ID,ELEMENT_SET_NO,REV_AT_EPOCH,BSTAR,MEAN_MOTION_DOT,MEAN_MOTION_DDOT
STARLINK-5657,2023-013M,2025-10-13T22:42:25.174080,15.02539229,.00013881,43.0053,17.8415,269.8798,90.1885,0,U,55342,999,14963,-.20214042E-4,-.477E-5,0
STARLINK-5661,2023-013N,2025-10-13T22:34:26.133600,15.02529560,.00014106,43.0052,17.7983,266.2434,93.8247,0,U,55343,999,14963,-.19151711E-4,-.462E-5,0
STARLINK-5653,2023-013Q,2025-10-13T22:34:48.129312,15.02521513,.00010599,43.0022,4.7795,269.4520,90.6201,0,U,55345,999,14978,.11344442E-3,.1329E-4,0
STARLINK-5631,2023-013R,2025-10-13T22:31:14.047392,15.02530491,.00011344,43.0047,17.7822,270.8550,89.2162,0,U,55346,999,14963,.28084047E-4,.176E-5,0
STARLINK-5663,2023-013S,2025-10-13T15:50:44.650464,15.02535956,.00007948,43.0028,19.1339,263.4043,96.6709,0,U,55347,999,14959,.25971363E-3,.3306E-4,0
STARLINK-5609,2023-013T,2025-10-13T14:27:48.072672,15.02535244,.00008126,43.0029,19.5641,264.6835,95.3914,0,U,55348,999,14958,.26292313E-4,.152E-5,0
STARLINK-5666,2023-013U,2025-10-13T12:47:16.448928,15.02537333,.00010565,43.0036,19.9006,262.4277,97.6445,0,U,55349,999,14957,.5971288E-5,-.123E-5,0
STARLINK-5668,2023-013V,2025-10-13T14:18:12.461184,15.02532263,.00016908,43.0061,19.5154,285.7329,74.3327,0,U,55350,999,14958,-.18193944E-3,-.266E-4,0
STARLINK-5659,2023-013W,2025-10-13T15:37:56.694432,15.02540307,.00010673,43.0031,19.0676,276.2604,83.8117,0,U,55351,999,14959,.64041402E-4,.662E-5,0
STARLINK-5547,2023-013X,2025-10-13T12:34:29.095104,15.02534628,.00011005,43.0041,19.8337,271.0364,89.0353,0,U,55352,999,14957,.29806434E-4,.199E-5,0
STARLINK-5608,2023-013Y,2025-10-13T15:17:10.808160,15.02531476,.00010631,43.0048,18.9589,265.1177,94.9544,0,U,55353,999,14959,-.47431913E-4,-.844E-5,0
STARLINK-5649,2023-013Z,2025-10-13T15:42:45.072576,15.02531886,.0000921,43.0036,19.0928,255.0910,104.9831,0,U,55354,999,14959,.2763335E-5,-.166E-5,0
STARLINK-5647,2023-013AA,2025-10-13T15:28:20.834112,15.02558388,.00008296,43.0022,19.0056,257.1273,102.9476,0,U,55355,999,14958,-.25564481E-3,-.3657E-4,0
STARLINK-5651,2023-013AC,2025-10-12T23:32:42.235296,15.02522695,.0001115,43.0047,22.6364,264.5900,95.4815,0,U,55357,999,14949,-.10904002E-3,-.1676E-4,0
STARLINK-5622,2023-013AD,2025-10-12T23:35:52.477728,15.02535553,.00013156,43.0055,22.6555,273.4955,86.5737,0,U,55358,999,14949,.51877411E-4,.497E-5,0
STARLINK-5641,2023-013AE,2025-10-13T15:25:10.364448,15.02526950,.00014135,43.0038,18.9997,267.3518,92.7163,0,U,55359,999,14959,.69619975E-4,.737E-5,0
STARLINK-5664,2023-013AF,2025-10-13T13:25:05.271456,15.02535896,.00011808,43.0059,32.2296,272.5544,87.5164,0,U,55360,999,14943,-.1467577E-4,-.402E-5,0
STARLINK-5665,2023-013AG,2025-10-13T22:04:26.397408,15.02527392,.00011864,43.0048,4.6399,260.7997,99.2711,0,U,55361,999,14978,.61081989E-4,.621E-5,0
STARLINK-5574,2023-013AH,2025-10-13T22:20:25.393344,15.02531704,.00014686,43.0086,4.7189,276.5822,83.4853,0,U,55362,999,14978,-.81200964E-4,-.13E-4,0
STARLINK-5627,2023-013AK,2025-10-13T13:46:14.490912,15.02533167,.00022425,43.0047,19.3439,294.6478,65.4131,0,U,55364,999,14958,-.42693072E-4,-.781E-5,0
STARLINK-5639,2023-013AL,2025-10-13T15:58:21.545760,15.02530832,.00009616,43.0039,32.1675,274.5585,85.5148,0,U,55365,999,14944,-.14622785E-4,-.401E-5,0
STARLINK-5654,2023-013AM,2025-10-13T22:25:12.830592,15.02529103,.00011212,43.0048,4.7397,271.5723,88.4991,0,U,55366,999,14978,-.10629966E-4,-.347E-5,0
STARLINK-5635,2023-013AN,2025-10-13T22:49:11.668800,15.02520509,.00006132,43.0019,4.8597,250.3397,109.7379,0,U,55367,999,14978,.36265588E-3,.4697E-4,0
STARLINK-5625,2023-013AP,2025-10-13T22:06:02.147616,15.02533175,.00011822,43.0058,4.6457,267.4626,92.6081,0,U,55368,999,14978,.31133025E-4,.217E-5,0
STARLINK-5644,2023-013AQ,2025-10-13T14:21:02.458368,15.02529263,.00009219,43.0057,32.5197,258.5643,101.5096,0,U,55369,999,14943,-.7677094E-5,-.307E-5,0
STARLINK-5027,2023-013AR,2025-10-13T16:03:09.592992,15.02530123,.0001232,43.0051,32.1940,274.0443,86.0258,0,U,55370,999,14944,-.9074725E-5,-.326E-5,0
STARLINK-5590,2023-013AS,2025-10-13T15:42:22.389984,15.02532607,.00008928,43.0065,32.0794,260.8694,99.2048,0,U,55371,999,15036,-.8378823E-5,-.317E-5,0
STARLINK-5568,2023-013AT,2025-10-13T15:51:56.535264,15.02589716,.00014479,43.0014,32.1325,274.2693,85.7984,0,U,55372,999,14944,-.76789267E-3,-.10576E-3,0
STARLINK-5581,2023-013AU,2025-10-13T16:22:18.279264,15.02603234,.00016707,43.0048,32.2861,269.8168,90.2483,0,U,55373,999,14944,-.10686459E-2,-.14635E-3,0
STARLINK-5578,2023-013AV,2025-10-13T15:47:10.213440,15.02531242,.00009943,43.0045,32.1085,265.4366,94.6363,0,U,55374,999,14944,.4035103E-5,-.149E-5,0
