STARLINK-5657           
1 55342U 23013M   25286.94612470 -.00000477  00000+0 -20214-4 0  9996
2 55342  43.0053  17.8415 0001388 269.8798  90.1885 15.02539229149633
STARLINK-5661           
1 55343U 23013N   25286.94058025 -.00000462  00000+0 -19152-4 0  9990
2 55343  43.0052  17.7983 0001410 266.2434  93.8247 15.02529560149635
STARLINK-5653           
1 55345U 23013Q   25286.94083483  .00001329  00000+0  11344-3 0  9993
2 55345  43.0022   4.7795 0001059 269.4520  90.6201 15.02521513149782
STARLINK-5631           
1 55346U 23013R   25286.93835703  .00000176  00000+0  28084-4 0  9992
2 55346  43.0047  17.7822 0001134 270.8550  89.2162 15.02530491149637
STARLINK-5663           
1 55347U 23013S   25286.66023901  .00003306  00000+0  25971-3 0  9991
2 55347  43.0028  19.1339 0000794 263.4043  96.6709 15.02535956149597
STARLINK-5609           
1 55348U 23013T   25286.60263973  .00000152  00000+0  26292-4 0  9995
2 55348  43.0029  19.5641 0000812 264.6835  95.3914 15.02535244149585
STARLINK-5666           
1 55349U 23013U   25286.53282927 -.00000123  00000+0  59713-5 0  9992
2 55349  43.0036  19.9006 0001056 262.4277  97.6445 15.02537333149574
STARLINK-5668           
1 55350U 23013V   25286.59597756 -.00002660  00000+0 -18194-3 0  9994
2 55350  43.0061  19.5154 0001690 285.7329  74.3327 15.02532263149583
STARLINK-5659           
1 55351U 23013W   25286.65135063  .00000662  00000+0  64041-4 0  9992
2 55351  43.0031  19.0676 0001067 276.2604  83.8117 15.02540307149595
STARLINK-5547           
1 55352U 23013X   25286.52394786  .00000199  00000+0  29806-4 0  9993
2 55352  43.0041  19.8337 0001100 271.0364  89.0353 15.02534628149570
STARLINK-5608           
1 55353U 23013Y   25286.63693065 -.00000844  00000+0 -47432-4 0  9992
2 55353  43.0048  18.9589 0001063 265.1177  94.9544 15.02531476149598
STARLINK-5649           
1 55354U 23013Z   25286.65468834 -.00000166  00000+0  27633-5 0  9997
2 55354  43.0036  19.0928 0000921 255.0910 104.9831 15.02531886149596
STARLINK-5647           
1 55355U 23013AA  25286.64468558 -.00003657  00000+0 -25564-3 0  9998
2 55355  43.0022  19.0056 0000829 257.1273 102.9476 15.02558388149584
STARLINK-5651           
1 55357U 23013AC  25285.98104439 -.00001676  00000+0 -10904-3 0  9992
2 55357  43.0047  22.6364 0001115 264.5900  95.4815 15.02522695149498
STARLINK-5622           
1 55358U 23013AD  25285.98324627  .00000497  00000+0  51877-4 0  9999
2 55358  43.0055  22.6555 0001315 273.4955  86.5737 15.02535553149492
STARLINK-5641           
1 55359U 23013AE  25286.64248107  .00000737  00000+0  69620-4 0  9994
2 55359  43.0038  18.9997 0001413 267.3518  92.7163 15.02526950149592
STARLINK-5664           
1 55360U 23013AF  25286.55908879 -.00000402  00000+0 -14676-4 0  9997
2 55360  43.0059  32.2296 0001180 272.5544  87.5164 15.02535896149431
STARLINK-5665           
1 55361U 23013AG  25286.91974997  .00000621  00000+0  61082-4 0  9996
2 55361  43.0048   4.6399 0001186 260.7997  99.2711 15.02527392149782
STARLINK-5574           
1 55362U 23013AH  25286.93084946 -.00001300  00000+0 -81201-4 0  9997
2 55362  43.0086   4.7189 0001468 276.5822  83.4853 15.02531704149782
STARLINK-5627           
1 55364U 23013AK  25286.57377883 -.00000781  00000+0 -42693-4 0  9998
2 55364  43.0047  19.3439 0002242 294.6478  65.4131 15.02533167149582
STARLINK-5639           
1 55365U 23013AL  25286.66552715 -.00000401  00000+0 -14623-4 0  9999
2 55365  43.0039  32.1675 0000961 274.5585  85.5148 15.02530832149443
STARLINK-5654           
1 55366U 23013AM  25286.93417628 -.00000347  00000+0 -10630-4 0  9996
2 55366  43.0048   4.7397 0001121 271.5723  88.4991 15.02529103149784
STARLINK-5635           
1 55367U 23013AN  25286.95082950  .00004697  00000+0  36266-3 0  9997
2 55367  43.0019   4.8597 0000613 250.3397 109.7379 15.02520509149781
STARLINK-5625           
1 55368U 23013AP  25286.92085819  .00000217  00000+0  31133-4 0  9995
2 55368  43.0058   4.6457 0001182 267.4626  92.6081 15.02533175149787
STARLINK-5644           
1 55369U 23013AQ  25286.59794512 -.00000307  00000+0 -76771-5 0  9996
2 55369  43.0057  32.5197 0000921 258.5643 101.5096 15.02529263149439
STARLINK-5027           
1 55370U 23013AR  25286.66886103 -.00000326  00000+0 -90747-5 0  9994
2 55370  43.0051  32.1940 0001232 274.0443  86.0258 15.02530123149449
STARLINK-5590           
1 55371U 23013AS  25286.65442581 -.00000317  00000+0 -83788-5 0  9999
2 55371  43.0065  32.0794 0000892 260.8694  99.2048 15.02532607150368
STARLINK-5568           
1 55372U 23013AT  25286.66107101 -.00010576  00000+0 -76789-3 0  9996
2 55372  43.0014  32.1325 0001447 274.2693  85.7984 15.02589716149448
STARLINK-5581           
1 55373U 23013AU  25286.68215601 -.00014635  00000+0 -10686-2 0  9997
2 55373  43.0048  32.2861 0001670 269.8168  90.2483 15.02603234149444
STARLINK-5578           
1 55374U 23013AV  25286.65775710 -.00000149  00000+0  40351-5 0  9996
2 55374  43.0045  32.1085 0000994 265.4366  94.6363 15.02531242149443
